OBJECT_NAME,OBJECT_ID,EPOCH,MEAN_MOTION,ECCENTRICITY,INCLINATION,RA_OF_ASC_NODE,ARG_OF_PERICENTER,MEAN_ANOMALY,EPHEMERIS_TYPE,CLASSIFICATION_TYPE,NORAD_CAT_ID,ELEMENT_SET_NO,REV_AT_EPOCH,BSTAR,MEAN_MOTION_DOT,MEAN_MOTION_DDOT
GPS BIIR-5  (PRN 22),2000-040A,2026-07-21T09:25:24.833856,2.00557999,.01203468,54.8479,213.8035,302.8238,198.4409,0,U,26407,999,19063,0,.74E-6,0
GPS BIIR-8  (PRN 16),2003-005A,2026-07-21T00:34:26.060736,2.00558800,.01484146,54.8784,213.6243,53.1925,318.0536,0,U,27663,999,17199,0,.71E-6,0
GPS BIIR-11 (PRN 19),2004-009A,2026-07-21T08:50:17.632032,2.00553600,.01173652,54.8015,274.3045,174.6043,237.6936,0,U,28190,999,16363,0,-.46E-6,0
GPS BIIR-13 (PRN 02),2004-045A,2026-07-21T04:46:05.855232,2.00557466,.01702973,55.1141,323.5263,317.2032,37.8025,0,U,28474,999,15910,0,-.11E-5,0
GPS BIIRM-1 (PRN 17),2005-038A,2026-07-21T06:21:03.799584,2.00563406,.01283173,54.8508,271.8004,296.4941,70.8975,0,U,28874,999,15252,0,-.41E-6,0
INMARSAT 4-F2 (SOUTHPAN/PRN 122),2005-044A,2026-07-21T12:13:51.741696,1.00272679,.00029194,5.1398,43.6902,59.6691,162.8705,0,U,28899,999,7586,0,-.262E-5,0
GPS BIIRM-2 (PRN 31),2006-042A,2026-07-20T21:53:37.194720,2.00567963,.01073436,54.7131,150.0000,55.3231,316.6702,0,U,29486,999,14507,0,.32E-6,0
GPS BIIRM-3 (PRN 12),2006-052A,2026-07-21T07:44:18.415104,2.00560107,.00847493,54.9318,212.6530,91.0110,269.9907,0,U,29601,999,14409,0,.75E-6,0
GPS BIIRM-4 (PRN 15),2007-047A,2026-07-21T15:04:47.486496,2.00553755,.01679993,54.1207,78.6459,88.1431,273.8358,0,U,32260,999,13750,0,-.72E-6,0
COSMOS 2433 (720),2007-052A,2026-07-21T04:06:53.604864,2.13104045,.00037192,65.5556,314.7897,203.8397,156.1614,0,U,32275,999,14578,0,-.87E-6,0
COSMOS 2432 (719),2007-052B,2026-07-21T06:50:18.504960,2.13103020,.00073741,65.5714,314.9145,320.9889,69.8285,0,U,32276,999,14581,0,-.88E-6,0
GPS BIIRM-5 (PRN 29),2007-062A,2026-07-20T10:55:23.759040,2.00561991,.00360667,55.0052,272.8137,167.9290,193.1150,0,U,32384,999,13618,0,-.47E-6,0
COSMOS 2434 (721),2007-065A,2026-07-20T14:30:49.866048,2.13101204,.00012344,64.3202,190.7886,328.2500,206.6629,0,U,32393,999,14448,0,.86E-6,0
COSMOS 2436 (723),2007-065C,2026-07-20T09:15:29.772000,2.13100001,.00173232,64.3289,190.8685,353.6543,145.4326,0,U,32395,999,14443,0,.84E-6,0
GPS BIIRM-6 (PRN 07),2008-012A,2026-07-21T00:54:28.219104,2.00573348,.0211732,54.5004,148.5724,248.2058,109.5085,0,U,32711,999,13443,0,.28E-6,0
GPS BIIRM-8 (PRN 05),2009-043A,2026-07-21T12:59:31.271424,2.00552568,.00536564,56.2319,26.1038,84.6659,286.0079,0,U,35752,999,12405,0,-.86E-6,0
COSMOS 2456 (730),2009-070A,2026-07-21T07:12:11.644128,2.13103502,.00034304,65.0317,69.8088,344.1065,162.6207,0,U,36111,999,12915,0,-.53E-6,0
COSMOS 2457 (733),2009-070B,2026-07-20T05:40:29.774208,2.13100985,.00043031,65.0165,69.6883,122.0917,55.7210,0,U,36112,999,12913,0,-.51E-6,0
COSMOS 2460 (732),2010-007C,2026-07-21T09:47:07.731168,2.13101549,.00018527,65.3983,313.3083,154.3387,203.9833,0,U,36402,999,12745,0,-.88E-6,0
GPS BIIF-1  (PRN 25),2010-022A,2026-07-21T11:26:22.107264,2.00564146,.01268841,54.2681,207.1807,66.1627,17.9853,0,U,36585,999,11828,0,.79E-6,0
BEIDOU-2 IGSO-1 (C06),2010-036A,2026-07-19T14:08:33.404064,1.00262639,.00586524,54.3073,162.6674,225.1805,228.5775,0,U,36828,999,5842,0,-.97E-6,0
BEIDOU-2 G4 (C04),2010-057A,2026-07-21T13:50:24.156672,1.00272931,.00052996,3.7306,68.7343,184.8109,53.3330,0,U,37210,999,5763,0,-.114E-5,0
BEIDOU-2 IGSO-2 (C07),2010-068A,2026-07-21T21:04:35.859648,1.00271863,.0057045,47.4828,271.3972,214.5351,238.1175,0,U,37256,999,5714,0,-.198E-5,0
BEIDOU-2 IGSO-3 (C08),2011-013A,2026-07-21T11:51:52.944192,1.00259347,.00358813,62.4558,39.8259,183.5212,359.9880,0,U,37384,999,5600,0,-.172E-5,0
GSAT-8 (GAGAN/PRN 127),2011-022A,2026-07-21T15:03:13.932576,1.00271655,.00025056,2.2178,81.4058,151.4207,347.4399,0,U,37605,999,5356,0,.85E-6,0
BEIDOU-2 IGSO-4 (C09),2011-038A,2026-07-21T08:24:46.541952,1.00278546,.01601254,54.6049,165.3688,231.4898,122.8667,0,U,37763,999,5498,0,-.25E-6,0
GSAT0101 (GALILEO-PFM),2011-060A,2026-07-17T22:29:50.024256,1.70475655,.0002114,56.9832,340.9281,62.8592,297.1517,0,U,37846,999,9164,0,-.105E-5,0
GSAT0102 (GALILEO-FM2),2011-060B,2026-07-21T09:13:16.311648,1.70476023,.00019957,56.9829,340.8353,5.2866,355.7737,0,U,37847,999,9171,0,-.107E-5,0
COSMOS 2476 (744),2011-064A,2026-07-21T08:34:33.953952,2.13103526,.00220393,65.2896,71.7181,235.5042,223.4275,0,U,37867,999,11449,0,-.53E-6,0
COSMOS 2477 (745),2011-064B,2026-07-21T05:42:02.867616,2.13102816,.00190656,65.2960,71.8019,236.4863,310.7777,0,U,37868,999,11448,0,-.53E-6,0
COSMOS 2475 (743),2011-064C,2026-07-21T06:32:12.705792,2.13101636,.00245165,65.3028,71.8225,250.3630,278.6004,0,U,37869,999,11449,0,-.53E-6,0
