{"epoch":1784710044,"count":18256,"objects":[{"id":"26407","name":"NAVSTAR 48 (USA 151)","type":"PAYLOAD","l1":"1 26407U 00040A   26202.39264854  .00000074  00000-0  00000-0 0  9997","l2":"2 26407  54.8479 213.8035 0120347 302.8238 198.4409  2.00557999190633"},{"id":"27663","name":"NAVSTAR 51 (USA 166)","type":"PAYLOAD","l1":"1 27663U 03005A   26202.02391274  .00000071  00000-0  00000-0 0  9990","l2":"2 27663  54.8784 213.6243 0148415  53.1925 318.0536  2.00558800171992"},{"id":"28190","name":"NAVSTAR 54 (USA 177)","type":"PAYLOAD","l1":"1 28190U 04009A   26202.36825963 -.00000046  00000-0  00000-0 0  9998","l2":"2 28190  54.8015 274.3045 0117365 174.6043 237.6936  2.00553600163634"},{"id":"28474","name":"NAVSTAR 56 (USA 180)","type":"PAYLOAD","l1":"1 28474U 04045A   26202.19867888 -.00000110  00000-0  00000-0 0  9998","l2":"2 28474  55.1141 323.5263 0170297 317.2032  37.8025  2.00557466159108"},{"id":"28874","name":"NAVSTAR 57 (USA 183)","type":"PAYLOAD","l1":"1 28874U 05038A   26202.26462731 -.00000041  00000-0  00000-0 0  9994","l2":"2 28874  54.8508 271.8004 0128317 296.4941  70.8975  2.00563406152527"},{"id":"28899","name":"INMARSAT 4-F2","type":"PAYLOAD","l1":"1 28899U 05044A   26202.50962664 -.00000262  00000-0  00000-0 0  9990","l2":"2 28899   5.1398  43.6902 0002919  59.6691 162.8705  1.00272679 75864"},{"id":"29486","name":"NAVSTAR 58 (USA 190)","type":"PAYLOAD","l1":"1 29486U 06042A   26201.91223605  .00000032  00000-0  00000-0 0  9995","l2":"2 29486  54.7131 150.0000 0107344  55.3231 316.6702  2.00567963145076"},{"id":"29601","name":"NAVSTAR 59 (USA 192)","type":"PAYLOAD","l1":"1 29601U 06052A   26202.32243536  .00000075  00000-0  00000-0 0  9993","l2":"2 29601  54.9318 212.6530 0084749  91.0110 269.9907  2.00560107144094"},{"id":"32260","name":"NAVSTAR 60 (USA 196)","type":"PAYLOAD","l1":"1 32260U 07047A   26202.62832739 -.00000072  00000-0  00000-0 0  9993","l2":"2 32260  54.1207  78.6459 0167999  88.1431 273.8358  2.00553755137503"},{"id":"32275","name":"COSMOS 2433 (GLONASS)","type":"PAYLOAD","l1":"1 32275U 07052A   26202.17145376 -.00000087  00000-0  00000-0 0  9995","l2":"2 32275  65.5556 314.7897 0003719 203.8397 156.1614  2.13104045145783"},{"id":"32276","name":"COSMOS 2432 (GLONASS)","type":"PAYLOAD","l1":"1 32276U 07052B   26202.28493640 -.00000088  00000-0  00000-0 0  9999","l2":"2 32276  65.5714 314.9145 0007374 320.9889  69.8285  2.13103020145816"},{"id":"32384","name":"NAVSTAR 61 (USA 199)","type":"PAYLOAD","l1":"1 32384U 07062A   26201.45513610 -.00000047  00000-0  00000-0 0  9993","l2":"2 32384  55.0052 272.8137 0036067 167.9290 193.1150  2.00561991136187"},{"id":"32393","name":"COSMOS 2434 (GLONASS)","type":"PAYLOAD","l1":"1 32393U 07065A   26201.60474382  .00000086  00000-0  00000-0 0  9997","l2":"2 32393  64.3202 190.7886 0001234 328.2500 206.6629  2.13101204144484"},{"id":"32395","name":"COSMOS 2436 (GLONASS)","type":"PAYLOAD","l1":"1 32395U 07065C   26201.38576125  .00000084  00000-0  00000-0 0  9990","l2":"2 32395  64.3289 190.8685 0017323 353.6543 145.4326  2.13100001144437"},{"id":"32711","name":"NAVSTAR 62 (USA 201)","type":"PAYLOAD","l1":"1 32711U 08012A   26202.03782661  .00000028  00000-0  00000-0 0  9990","l2":"2 32711  54.5004 148.5724 0211732 248.2058 109.5085  2.00573348134435"},{"id":"35752","name":"NAVSTAR 64 (USA 206)","type":"PAYLOAD","l1":"1 35752U 09043A   26202.54133416 -.00000086  00000-0  00000-0 0  9992","l2":"2 35752  56.2319  26.1038 0053656  84.6659 286.0079  2.00552568124050"},{"id":"36111","name":"COSMOS 2456 (GLONASS)","type":"PAYLOAD","l1":"1 36111U 09070A   26202.30013477 -.00000053  00000-0  00000-0 0  9994","l2":"2 36111  65.0317  69.8088 0003430 344.1065 162.6207  2.13103502129157"},{"id":"36112","name":"COSMOS 2457 (GLONASS)","type":"PAYLOAD","l1":"1 36112U 09070B   26201.23645572 -.00000051  00000-0  00000-0 0  9991","l2":"2 36112  65.0165  69.6883 0004303 122.0917  55.7210  2.13100985129135"},{"id":"36402","name":"COSMOS 2460 (GLONASS)","type":"PAYLOAD","l1":"1 36402U 10007C   26202.40772837 -.00000088  00000-0  00000-0 0  9990","l2":"2 36402  65.3983 313.3083 0001853 154.3387 203.9833  2.13101549127453"},{"id":"36585","name":"NAVSTAR 65 (USA 213)","type":"PAYLOAD","l1":"1 36585U 10022A   26202.47664476  .00000079  00000-0  00000-0 0  9994","l2":"2 36585  54.2681 207.1807 0126884  66.1627  17.9853  2.00564146118288"},{"id":"36828","name":"BEIDOU 5","type":"PAYLOAD","l1":"1 36828U 10036A   26200.58927551 -.00000097  00000-0  00000-0 0  9996","l2":"2 36828  54.3073 162.6674 0058652 225.1805 228.5775  1.00262639 58426"},{"id":"37210","name":"BEIDOU 6","type":"PAYLOAD","l1":"1 37210U 10057A   26202.57666848 -.00000114  00000-0  00000-0 0  9995","l2":"2 37210   3.7306  68.7343 0005300 184.8109  53.3330  1.00272931 57637"},{"id":"37256","name":"BEIDOU 7","type":"PAYLOAD","l1":"1 37256U 10068A   26202.87819282 -.00000198  00000-0  00000+0 0  9993","l2":"2 37256  47.4828 271.3972 0057045 214.5351 238.1175  1.00271863 57143"},{"id":"37384","name":"BEIDOU 8","type":"PAYLOAD","l1":"1 37384U 11013A   26202.49436278 -.00000172  00000-0  00000-0 0  9997","l2":"2 37384  62.4558  39.8259 0035881 183.5212 359.9880  1.00259347 56004"},{"id":"37605","name":"GSAT 8","type":"PAYLOAD","l1":"1 37605U 11022A   26202.62724459  .00000085  00000-0  00000-0 0  9991","l2":"2 37605   2.2178  81.4058 0002506 151.4207 347.4399  1.00271655 53567"},{"id":"37763","name":"BEIDOU 9","type":"PAYLOAD","l1":"1 37763U 11038A   26202.35053868 -.00000025  00000-0  00000-0 0  9997","l2":"2 37763  54.6049 165.3688 0160125 231.4898 122.8667  1.00278546 54984"},{"id":"37846","name":"GALILEO-PFM","type":"PAYLOAD","l1":"1 37846U 11060A   26198.93738454 -.00000105  00000-0  00000+0 0  9991","l2":"2 37846  56.9832 340.9281 0002114  62.8592 297.1517  1.70475655 91642"},{"id":"37847","name":"GALILEO-FM2","type":"PAYLOAD","l1":"1 37847U 11060B   26202.38421657 -.00000107  00000-0  00000-0 0  9994","l2":"2 37847  56.9829 340.8353 0001996   5.2866 355.7737  1.70476023 91713"},{"id":"37867","name":"COSMOS 2476 (GLONASS)","type":"PAYLOAD","l1":"1 37867U 11064A   26202.35733743 -.00000053  00000-0  00000-0 0  9999","l2":"2 37867  65.2896  71.7181 0022039 235.5042 223.4275  2.13103526114498"},{"id":"37868","name":"COSMOS 2477 (GLONASS)","type":"PAYLOAD","l1":"1 37868U 11064B   26202.23753319 -.00000053  00000-0  00000-0 0  9998","l2":"2 37868  65.2960  71.8019 0019066 236.4863 310.7777  2.13102816114486"},{"id":"37869","name":"COSMOS 2475 (GLONASS)","type":"PAYLOAD","l1":"1 37869U 11064C   26202.27236928 -.00000053  00000-0  00000-0 0  9995","l2":"2 37869  65.3028  71.8225 0024516 250.3630 278.6004  2.13101636114490"}]}